GLOBALSTAR M094         
1 39074U 13005C   25280.85559583 -.00000090  00000+0  75776-4 0  9992
2 39074  51.9948 199.0742 0000758  87.4443 272.6510 12.62270180586600
GLOBALSTAR M096         
1 39075U 13005D   25280.94799890 -.00000108  00000+0 -24752-4 0  9999
2 39075  52.0060 247.3959 0000604  87.5924 272.5012 12.62267379585533
GLOBALSTAR M078         
1 39076U 13005E   25280.52610438  .00000013  00000+0  64941-3 0  9990
2 39076  51.9892 333.0418 0001282  79.1556 280.9455 12.62260527584103
GLOBALSTAR M095         
1 39077U 13005F   25280.86883664 -.00000077  00000+0  15119-3 0  9995
2 39077  52.0097 329.2428 0000904 105.6020 254.4946 12.62260473584002
GLOBALSTAR M087         
1 52888U 22064A   25280.48632352 -.00000088  00000+0  86664-4 0  9995
2 52888  51.9975 111.7886 0001020  96.5223 263.5760 12.62289250159226
